HST                     
1 20580U 90037B   21242.47780602  .00001071  00000-0  53758-4 0  9990
2 20580  28.4701 295.2584 0002842 136.1033 243.8934 15.09719776522191
POLAR                   
1 23802U 96013A   21241.13915489  .00000268  00000-0  00000-0 0  9990
2 23802  78.7191 244.6342 5963524 268.7695  26.6368  1.29847048122090
SWAS                    
1 25560U 98071A   21242.60361933  .00000679  00000-0  71864-4 0  9997
2 25560  69.9008 358.5333 0006594  17.6230 342.5154 14.94129108234579
CXO                     
1 25867U 99040B   21244.80329788  .00000699  00000-0  00000-0 0  9992
2 25867  53.2663 252.0422 8439819 226.9951   0.6188  0.37805295 10731
XMM-NEWTON              
1 25989U 99066A   21242.31249275  .00000154  00000-0  00000-0 0  9997
2 25989  70.6925 310.4935 6470246  89.7312   0.1428  0.50134275 14229
TERRA                   
1 25994U 99068A   21242.61008600  .00000129  00000-0  38627-4 0  9995
2 25994  98.1714 315.6601 0001446  97.9612  38.3818 14.57134534154145
CLUSTER II-FM7 (SAMBA)  
1 26410U 00041A   21244.37472150 -.00000178  00000-0  00000-0 0  9997
2 26410 133.0677 345.1359 5049518 193.6713 359.8313  0.44217415 12535
CLUSTER II-FM6 (SALSA)  
1 26411U 00041B   21244.36971151 -.00000244  00000-0  00000-0 0  9996
2 26411 134.0979 347.2433 6584242 198.3178 359.8473  0.44219999 12574
CLUSTER II-FM5 (RUMBA)  
1 26463U 00045A   21244.37301406 -.00000158  00000-0  00000-0 0  9992
2 26463 137.7215 347.3180 6131381 198.7243 359.8741  0.44219840 12464
CLUSTER II-FM8 (TANGO)  
1 26464U 00045B   21244.37413188 -.00000179  00000-0  00000-0 0  9997
2 26464 133.0608 345.1266 5049396 193.6619 359.8251  0.44220180 12549
ODIN                    
1 26702U 01007A   21242.50195894  .00001081  00000-0  73002-4 0  9993
2 26702  97.5363 257.6813 0010010 198.1593 161.9280 15.08627994122397
TIMED                   
1 26998U 01055B   21242.41732386  .00000356  00000-0  42484-4 0  9990
2 26998  74.0728 139.2600 0000389 218.1987 141.9167 14.88338812 69708
RHESSI                  
1 27370U 02004A   21242.51519851  .00012130  00000-0  34490-3 0  9991
2 27370  38.0341   3.4533 0011866 326.2883  33.7134 15.35592685 81786
INTEGRAL                
1 27540U 02048A   21239.77243119  .00000076  00000-0  00000-0 0  9996
2 27540  66.4412  79.2667 8988611 299.8736   1.5443  0.37581928 20052
CORIOLIS                
1 27640U 03001A   21242.55414380  .00000015  00000-0  28182-4 0  9995
2 27640  98.7224 251.1755 0013557 210.4893 260.3163 14.19080007965716
SORCE                   
1 27651U 03004A   21242.15317501  .00000527  00000-0  68393-4 0  9999
2 27651  39.9965  43.1236 0023711 228.1284 131.7481 14.89356396  9620
MOST                    
1 27843U 03031D   21242.48024658  .00000002  00000-0  21363-4 0  9990
2 27843  98.7099 249.3582 0008878 267.4436  92.5724 14.20643183941931
SCISAT 1                
1 27858U 03036A   21242.54900824  .00000185  00000-0  31007-4 0  9994
2 27858  73.9334  38.3388 0007253 151.5986 208.5585 14.77367504972461
SWIFT                   
1 28485U 04047A   21242.53015100  .00001782  00000-0  90765-4 0  9997
2 28485  20.5557 190.0770 0010955 211.9006 148.0765 15.05100103919642
FORMOSAT-3 FM6          
1 29047U 06011A   21242.52862467 -.00000155  00000-0 -44318-4 0  9998
2 29047  71.9761 293.7463 0049815  22.3030 338.0256 14.28832787804005
FORMOSAT-3 FM1          
1 29048U 06011B   21242.34807911  .00000119  00000-0  63165-4 0  9991
2 29048  71.9658 204.5101 0044479 341.3293  18.6209 14.28796960806458
FORMOSAT-3 FM5          
1 29049U 06011C   21242.53532372  .00000123  00000-0  64455-4 0  9997
2 29049  72.0222  18.2756 0035054   3.4732 356.6641 14.28878708802279
FORMOSAT-3 FM3          
1 29050U 06011D   21242.08478759  .00000230  00000-0  58335-4 0  9996
2 29050  72.0157 120.3999 0051469 248.3267 111.2400 14.59105200820286
FORMOSAT-3 FM4          
1 29051U 06011E   21242.52473339  .00000150  00000-0  73949-4 0  9994
2 29051  72.0036 279.5028 0070044 246.3963 112.9808 14.28910887804850
FORMOSAT-3 FM2          
1 29052U 06011F   21242.56204591  .00000108  00000-0  58384-4 0  9990
2 29052  72.0367 354.9426 0041411 322.5882  37.2372 14.29020581802353
CLOUDSAT                
1 29107U 06016A   21242.49215921  .00000233  00000-0  54827-4 0  9994
2 29107  98.2837 195.7232 0005915 120.9471 239.2313 14.63108756816493
CALIPSO                 
1 29108U 06016B   21242.46894226  .00000321  00000-0  72658-4 0  9993
2 29108  98.2811 195.4248 0001299  80.9012 279.2336 14.62583742816486
HINODE (SOLAR-B)        
1 29479U 06041A   21242.48711048  .00000207  00000-0  47932-4 0  9994
2 29479  98.1352 256.1922 0020419  63.5756 296.7539 14.64583729798167
SJ-6C                   
1 29505U 06046A   21242.51609441 -.00000059  00000-0 -12871-6 0  9999
2 29505  97.7992 260.3208 0005421  27.7600 332.3916 14.95222691809219
SJ-6D                   
1 29506U 06046B   21242.55721086  .00000418  00000-0  45044-4 0  9997
2 29506  97.8186 260.5840 0003744  95.3238 264.8411 14.93636824808712
AGILE                   
1 31135U 07013A   21241.98716984  .00006553  00000-0  15807-3 0  9999
2 31135   2.4684   1.6009 0011500 198.4975 161.4660 15.33893455432071
AIM                     
1 31304U 07015A   21242.46576564  .00003763  00000-0  20738-3 0  9990
2 31304  97.8602 146.6260 0003771 309.0014  51.0881 15.14650909787112
FGRST (GLAST)           
1 33053U 08029A   21242.48254793  .00000973  00000-0  38785-4 0  9990
2 33053  25.5836 350.1071 0012524  50.8150 309.3496 15.11577262729611
WISE                    
1 36119U 09071A   21242.15594596  .00003273  00000-0  11138-3 0  9994
2 36119  97.2790 277.3603 0000742 239.5586 120.5582 15.31127841650901
SDO                     
1 36395U 10005A   21241.63635551 -.00000083  00000-0  00000-0 0  9998
2 36395  31.0953 113.9964 0000575 314.2794  36.8988  1.00276322 42482
CRYOSAT 2               
1 36508U 10013A   21242.54996539  .00000056  00000-0  13008-4 0  9995
2 36508  92.0151 213.6864 0007119 138.5085 221.6664 14.51911344603920
X-SAT                   
1 37389U 11015C   21242.55346545 -.00000035  00000-0  26107-5 0  9996
2 37389  98.3771 284.9850 0015465  85.0829 275.2117 14.24390032538791
GCOM-W1 (SHIZUKU)       
1 38337U 12025A   21242.41983637  .00000146  00000-0  42444-4 0  9999
2 38337  98.2113 182.0546 0002105  64.6479  48.0739 14.57113982493930
NUSTAR                  
1 38358U 12031A   21242.46925776  .00001506  00000-0  83245-4 0  9999
2 38358   6.0269 319.3660 0011150 100.4761 259.6624 14.88591076501411
NEOSSAT                 
1 39089U 13009D   21242.55122585  .00000069  00000-0  39410-4 0  9992
2 39089  98.4393  80.8803 0012448  65.1541 295.0937 14.34579554445505
IRIS                    
1 39197U 13033A   21242.47175731  .00000303  00000-0  48139-4 0  9990
2 39197  97.9682  66.0224 0026260 249.3260 110.5135 14.78888961440963
HISAKI (SPRINT-A)       
1 39253U 13049A   21242.33270061  .00000067  00000-0 -39259-6 0  9990
2 39253  29.7200 124.1171 0137459 218.0763 141.0025 13.55248302393581
CASSIOPE                
1 39265U 13055A   21242.47849311  .00008926  00000-0  24451-3 0  9991
2 39265  80.9656 214.3200 0647976  96.4335 271.1000 14.32728237410591
STSAT-3                 
1 39422U 13066G   21242.53390572  .00000525  00000-0  59586-4 0  9990
2 39422  97.4776 258.4238 0023299 167.4624 192.7215 14.90003816422512
SWARM B                 
1 39451U 13067A   21242.49439874  .00000996  00000-0  41966-4 0  9992
2 39451  87.7574 148.5350 0002770  62.2596 297.8930 15.22106404416682
SWARM A                 
1 39452U 13067B   21242.48554284  .00004170  00000-0  84858-4 0  9990
2 39452  87.3635 330.7784 0003597  95.8288 264.3381 15.45927784436971
SWARM C                 
1 39453U 13067C   21242.48549643  .00004315  00000-0  87842-4 0  9991
2 39453  87.3487 330.8421 0003594  95.7895 264.3773 15.45927839436938
BRITE-CA1 (TORONTO)     
1 40020U 14033L   21242.41784219  .00000261  00000-0  52291-4 0  9996
2 40020  97.7491  51.8278 0088604 111.5617 249.5059 14.66763597384995
OCO 2                   
1 40059U 14035A   21242.53236919  .00000133  00000-0  39610-4 0  9990
2 40059  98.2119 182.9092 0001188  81.3509 278.7824 14.57100915380962
BRITE-PL2 (HEWELIUSZ)   
1 40119U 14049B   21242.49674627  .00000436  00000-0  57805-4 0  9991
2 40119  97.8885 336.2102 0018734 112.5025 247.8176 14.84691815380832
RESURS P2               
1 40360U 14087A   21242.52643728  .00001665  00000-0  52150-4 0  9996
2 40360  97.2266 328.4923 0011073  58.3424 358.7864 15.34442419373625
MMS 1                   
1 40482U 15011C   21235.37500000 -.00001932  00000-0  00000-0 0  9990
2 40482  33.6489 115.5052 8447009  36.2195 201.2990  0.28483368 12457
MMS 2                   
1 40483U 15011A   21235.37500000 -.00001931  00000-0  00000-0 0  9990
2 40483  33.6512 115.4970 8444670  36.2298 201.2883  0.28483364 12512
MMS 3                   
1 40484U 15011C   21235.37500000 -.00001930  00000-0  00000-0 0  9990
2 40484  33.6189 115.5025 8439098  36.2613 201.3054  0.28473367 12191
MMS 4                   
1 40485U 15011D   21235.37500000 -.00001932  00000-0  00000-0 0  9993
2 40485  33.6493 115.5146 8445910  36.2279 201.2574  0.28483309 12409
ASTROSAT                
1 40930U 15052A   21242.33680732  .00000939  00000-0  42695-4 0  9993
2 40930   5.9970  93.8283 0008649 352.4413   7.5584 14.76391370320050
DAMPE                   
1 41173U 15078A   21242.51442122  .00000173  00000-0  10007-4 0  9992
2 41173  97.3542 233.2643 0014661 138.8047 338.6274 15.24042832317263
PISAT                   
1 41784U 16059B   21242.41104379  .00000226  00000-0  52194-4 0  9990
2 41784  97.9607 291.4401 0032083  11.5825 348.6109 14.63653367263111
HXMT (HUIYAN)           
1 42758U 17034A   21242.45344567  .00000511  00000-0  45080-4 0  9998
2 42758  43.0165 146.9116 0009645 267.0056 262.6554 15.09279182232196
FLYING LAPTOP           
1 42831U 17042G   21242.56906281  .00000113  00000-0  16542-4 0  9997
2 42831  97.4606 108.3742 0012447 259.8270 100.1557 14.91334406224730
PICSAT                  
1 43132U 18004X   21242.48244724  .00004930  00000-0  19340-3 0  9998
2 43132  97.4049 316.3604 0007589 314.8813  45.1809 15.26183774201978
ZHANGZHENG-1 (CSES)     
1 43194U 18015C   21242.53219162  .00002196  00000-0  10198-3 0  9996
2 43194  97.4879   9.4012 0013230  19.0654  47.7367 15.21016858198400
ICON                    
1 44628U 19068A   21241.86091317  .00001077  00000-0  84039-4 0  9996
2 44628  26.9903  52.7828 0018988  54.9826 305.2511 14.92006312102968
SALSAT                  
1 46495U 20068K   21242.26859751 -.00000060  00000-0  17131-6 0  9994
2 46495  97.6960 179.3412 0016428 175.7590 184.3778 15.03523688 50429
